NORAD_CAT_ID,OBJECT_NAME,OBJECT_TYPE,EPOCH,MEAN_MOTION,ECCENTRICITY,INCLINATION,RA_OF_ASC_NODE,ARG_OF_PERICENTER,MEAN_ANOMALY,BSTAR,MEAN_MOTION_DOT,MEAN_MOTION_DDOT,TLE_LINE0,TLE_LINE1,TLE_LINE2,SEMIMAJOR_AXIS,PERIOD,APOGEE,PERIGEE,DECAYED
51718.0,STARLINK-3546,PAYLOAD,2022-09-11 14:00:01,15.08807503,0.0001919,53.2156,293.2871,43.8541,207.1983,0.0030278,0.00048187,0.0,0 STARLINK-3546,1 51718U 22016E   22254.58334491  .00048187  00000-0  30278-2 0  9995,2 51718  53.2156 293.2871 0001919  43.8541 207.1983 15.08807503  1304,6917.98,95.44,541.172,538.5169999999998,0.0
51718.0,STARLINK-3546,PAYLOAD,2022-09-11 22:00:00,15.08817216,0.0001730999999999,53.2157,291.7888,49.0873,213.5493,0.0023090999999999,0.0003663,0.0,0 STARLINK-3546,1 51718U 22016E   22254.91667824  .00036630  00000-0  23091-2 0  9996,2 51718  53.2157 291.7888 0001731  49.0873 213.5493 15.08817216  1303,6917.95,95.439,541.013,538.618,0.0
51718.0,STARLINK-3546,PAYLOAD,2022-09-12 14:00:01,15.08844111,0.0001874,53.2152,288.7975,43.9522,241.8686,8.5199e-05,1.068e-05,0.0,0 STARLINK-3546,1 51718U 22016E   22255.58334491  .00001068  00000-0  85199-4 0  9997,2 51718  53.2152 288.7975 0001874  43.9522 241.8686 15.08844111 32130,6917.868,95.437,541.029,538.436,0.0
51718.0,STARLINK-3546,PAYLOAD,2022-09-12 22:00:00,15.08814137,0.0001657,53.2152,287.2993,48.4687,248.9673,0.002425,0.0003849,0.0,0 STARLINK-3546,1 51718U 22016E   22255.91667824  .00038490  00000-0  24250-2 0  9991,2 51718  53.2152 287.2993 0001657  48.4687 248.9673 15.08814137  1309,6917.959,95.439,540.971,538.678,0.0
51718.0,STARLINK-3546,PAYLOAD,2022-09-13 14:00:01,15.08849544,0.0001808,53.2149,284.3082,42.4233,278.1896,-0.00080637,-0.00013102,0.0,0 STARLINK-3546,1 51718U 22016E   22256.58334491 -.00013102  00000-0 -80637-3 0  9993,2 51718  53.2149 284.3082 0001808  42.4233 278.1896 15.08849544  1303,6917.851,95.437,540.967,538.465,0.0
51718.0,STARLINK-3546,PAYLOAD,2022-09-13 16:00:00,15.08869524,0.0001809,53.215,283.9338,42.9072,10.6011,-0.0040533999999999,-0.00064275,0.0,0 STARLINK-3546,1 51718U 22016E   22256.66667824 -.00064275  00000-0 -40534-2 0  9999,2 51718  53.2150 283.9338 0001809  42.9072  10.6011 15.08869524 32303,6917.79,95.436,540.9069999999998,538.404,0.0
51718.0,STARLINK-3546,PAYLOAD,2022-09-13 22:00:00,15.08797031,0.0001605,53.215,282.81,47.857,284.3596,0.0029906,0.00047573,0.0,0 STARLINK-3546,1 51718U 22016E   22256.91667824  .00047573  00000-0  29906-2 0  9997,2 51718  53.2150 282.8100 0001605  47.8570 284.3596 15.08797031  1306,6918.012,95.44,540.987,538.766,0.0
51718.0,STARLINK-3546,PAYLOAD,2022-09-14 06:00:00,15.08840629,0.0001724,53.2149,281.3142,46.4121,297.3656,-0.0014770999999999,-0.0002372,0.0,0 STARLINK-3546,1 51718U 22016E   22257.25001157 -.00023720  00000-0 -14771-2 0  9990,2 51718  53.2149 281.3142 0001724  46.4121 297.3656 15.08840629 32388,6917.878000000002,95.438,540.936,538.5509999999998,0.0
51718.0,STARLINK-3546,PAYLOAD,2022-09-14 14:00:01,15.08825856,0.0001826,53.2146,279.8183,41.5434,313.8195,0.0013586,0.00021392,0.0,0 STARLINK-3546,1 51718U 22016E   22257.58334491  .00021392  00000-0  13586-2 0  9990,2 51718  53.2146 279.8183 0001826  41.5434 313.8195 15.08825856  1303,6917.924,95.438,541.052,538.525,0.0
51718.0,STARLINK-3546,PAYLOAD,2022-09-14 22:00:00,15.08814579,0.0001675,53.2147,278.3201,48.0799,318.8806,0.0033145,0.00052821,0.0,0 STARLINK-3546,1 51718U 22016E   22257.91667824  .00052821  00000-0  33145-2 0  9990,2 51718  53.2147 278.3201 0001675  48.0799 318.8806 15.08814579 32495,6917.958000000001,95.439,540.982,538.664,0.0
51718.0,STARLINK-3546,PAYLOAD,2022-09-15 14:00:01,15.08859443,0.0001879,53.2147,275.3288,40.7068,349.4435,-0.0019498,-0.00031202,0.0,0 STARLINK-3546,1 51718U 22016E   22258.58334491 -.00031202  00000-0 -19498-2 0  9992,2 51718  53.2147 275.3288 0001879  40.7068 349.4435 15.08859443  1304,6917.821,95.436,540.986,538.386,0.0
51718.0,STARLINK-3546,PAYLOAD,2022-09-15 18:38:11,15.08860755,0.0001841,53.2164,274.4605,48.2931,311.8219,2.5448e-06,-2.48e-06,0.0,0 STARLINK-3546,1 51718U 22016E   22258.77652599 -.00000248  00000-0  25448-5 0  9995,2 51718  53.2164 274.4605 0001841  48.2931 311.8219 15.08860755 32683,6917.816999999999,95.436,540.956,538.408,0.0
51718.0,STARLINK-3546,PAYLOAD,2022-09-16 00:59:45,15.08843039,0.0002104,53.2165,273.2712,53.1942,306.9243,0.00021268,3.099e-05,0.0,0 STARLINK-3546,1 51718U 22016E   22259.04149549  .00003099  00000-0  21268-3 0  9992,2 51718  53.2165 273.2712 0002104  53.1942 306.9243 15.08843039 32655,6917.871,95.437,541.192,538.281,0.0
51718.0,STARLINK-3546,PAYLOAD,2022-09-16 07:21:18,15.08838279,0.0001841999999999,53.2158,272.0818,47.3299,312.7849,0.00014613,2.038e-05,0.0,0 STARLINK-3546,1 51718U 22016E   22259.30645990  .00002038  00000-0  14613-3 0  9990,2 51718  53.2158 272.0818 0001842  47.3299 312.7849 15.08838279 32768,6917.886,95.438,541.025,538.476,0.0
51718.0,STARLINK-3546,PAYLOAD,2022-09-17 10:22:51,15.08835511,0.0001851,53.2156,267.0265,45.2854,314.8289,-1.3235e-05,-4.99e-06,0.0,0 STARLINK-3546,1 51718U 22016E   22260.43254320 -.00000499  00000-0 -13235-4 0  9990,2 51718  53.2156 267.0265 0001851  45.2854 314.8289 15.08835511 32868,6917.894,95.438,541.04,538.479,0.0
51718.0,STARLINK-3546,PAYLOAD,2022-09-18 10:13:38,15.08843255,0.0001869,53.2156,262.566,45.6715,314.443,0.00016181,2.288e-05,0.0,0 STARLINK-3546,1 51718U 22016E   22261.42614147  .00002288  00000-0  16181-3 0  9995,2 51718  53.2156 262.5660 0001869  45.6715 314.4430 15.08843255 33089,6917.87,95.437,541.028,538.442,0.0
51718.0,STARLINK-3546,PAYLOAD,2022-09-19 10:04:25,15.08836767,0.0001902,53.2157,258.1054,44.3855,315.7290000000001,7.5896e-05,9.2e-06,0.0,0 STARLINK-3546,1 51718U 22016E   22262.41974437  .00000920  00000-0  75896-4 0  9996,2 51718  53.2157 258.1054 0001902  44.3855 315.7290 15.08836767 33232,6917.89,95.438,541.071,538.439,0.0
51718.0,STARLINK-3546,PAYLOAD,2022-09-20 01:58:16,15.08845887,0.0001915,53.2158,255.1317,45.1858,314.9289,0.00010293,1.351e-05,0.0,0 STARLINK-3546,1 51718U 22016E   22263.08213842  .00001351  00000-0  10293-3 0  9994,2 51718  53.2158 255.1317 0001915  45.1858 314.9289 15.08845887 33263,6917.861999999999,95.437,541.052,538.403,0.0
51718.0,STARLINK-3546,PAYLOAD,2022-09-20 08:19:49,15.08834583,0.0001911999999999,53.2161,253.9424,43.3671,316.7471,-6.534100000000001e-05,-1.328e-05,0.0,0 STARLINK-3546,1 51718U 22016E   22263.34710396 -.00001328  00000-0 -65341-4 0  9990,2 51718  53.2161 253.9424 0001912  43.3671 316.7471 15.08834583 33378,6917.897,95.438,541.085,538.439,0.0
51718.0,STARLINK-3546,PAYLOAD,2022-09-21 16:07:32,15.08843528,0.0001914,53.2157,247.9951,44.2275,315.8869,0.00013107,1.799e-05,0.0,0 STARLINK-3546,1 51718U 22016E   22264.67190219  .00001799  00000-0  13107-3 0  9995,2 51718  53.2157 247.9951 0001914  44.2275 315.8869 15.08843528 33508,6917.87,95.437,541.059,538.411,0.0
51718.0,STARLINK-3546,PAYLOAD,2022-09-22 15:58:20,15.08835339,0.0001927,53.2154,243.5348,44.8421,315.2726,0.00010772,1.426e-05,0.0,0 STARLINK-3546,1 51718U 22016E   22265.66550940  .00001426  00000-0  10772-3 0  9998,2 51718  53.2154 243.5348 0001927  44.8421 315.2726 15.08835339 33721,6917.895,95.438,541.0930000000002,538.427,0.0
51718.0,STARLINK-3546,PAYLOAD,2022-09-23 04:41:24,15.08847849,0.0001829,53.2169,241.1559,43.1131,317.0004,0.00013176,1.810000000000001e-05,0.0,0 STARLINK-3546,1 51718U 22016E   22266.19542311  .00001810  00000-0  13176-3 0  9998,2 51718  53.2169 241.1559 0001829  43.1131 317.0004 15.08847849 33735,6917.856,95.437,540.987,538.456,0.0
51718.0,STARLINK-3546,PAYLOAD,2022-09-24 04:32:12,15.08844411,0.0001924,53.216,236.6935,48.6191,311.4967,0.00017553,2.507e-05,0.0,0 STARLINK-3546,1 51718U 22016E   22267.18902933  .00002507  00000-0  17553-3 0  9995,2 51718  53.2160 236.6935 0001924  48.6191 311.4967 15.08844411 33889,6917.8669999999975,95.437,541.063,538.401,0.0
51718.0,STARLINK-3546,PAYLOAD,2022-09-24 17:15:16,15.08855414,0.0002056,53.2158,234.3162,47.4762,312.6404,0.00032274,4.854e-05,0.0,0 STARLINK-3546,1 51718U 22016E   22267.71894359  .00004854  00000-0  32274-3 0  9990,2 51718  53.2158 234.3162 0002056  47.4762 312.6404 15.08855414 34033,6917.833000000001,95.437,541.121,538.276,0.0
51718.0,STARLINK-3546,PAYLOAD,2022-09-25 04:22:58,15.0885176,0.0002038,53.2165,232.2361,41.2546,318.86,0.00031471,4.726e-05,0.0,0 STARLINK-3546,1 51718U 22016E   22268.18262551  .00004726  00000-0  31471-3 0  9991,2 51718  53.2165 232.2361 0002038  41.2546 318.8600 15.08851760 34105,6917.844,95.437,541.119,538.3,0.0
51718.0,STARLINK-3546,PAYLOAD,2022-09-26 02:38:22,15.08844284,0.000212,53.2162,228.0714,48.0818,312.0355,3.4648000000000004e-05,2.63e-06,0.0,0 STARLINK-3546,1 51718U 22016E   22269.10998444  .00000263  00000-0  34648-4 0  9993,2 51718  53.2162 228.0714 0002120  48.0818 312.0355 15.08844284 34179,6917.8669999999975,95.437,541.1990000000002,538.266,0.0
51718.0,STARLINK-3546,PAYLOAD,2022-09-27 04:04:33,15.0883864,0.0002056,53.2184,223.3174,58.1324,301.9868,6.0034e-05,6.67e-06,0.0,0 STARLINK-3546,1 51718U 22016E   22270.16983187  .00000667  00000-0  60034-4 0  9995,2 51718  53.2184 223.3174 0002056  58.1324 301.9868 15.08838640 34404,6917.885,95.438,541.172,538.327,0.0
51718.0,STARLINK-3546,PAYLOAD,2022-09-28 02:19:56,15.088402599999998,0.0002136,53.2177,219.1471,47.2329,312.8842,8.8464e-05,1.12e-05,0.0,0 STARLINK-3546,1 51718U 22016E   22271.09718717  .00001120  00000-0  88464-4 0  9995,2 51718  53.2177 219.1471 0002136  47.2329 312.8842 15.08840260 34541,6917.88,95.438,541.222,538.2669999999998,0.0
51718.0,STARLINK-3546,PAYLOAD,2022-09-28 16:38:25,15.08841213,0.000202,53.2164,216.4756,49.3152,310.8015,5.5758e-05,5.99e-06,0.0,0 STARLINK-3546,1 51718U 22016E   22271.69334898  .00000599  00000-0  55758-4 0  9994,2 51718  53.2164 216.4756 0002020  49.3152 310.8015 15.08841213 34563,6917.877,95.437,541.139,538.344,0.0
